{
"type": "FeatureCollection",
"name": "Project Bounds",
"features": [
{ "type": "Feature", "properties": { }, "geometry": { "type": "Polygon", "coordinates": [ [ [ -122.09750972187048, 42.674182531108627 ], [ -122.091798885155441, 42.674414635686304 ], [ -122.088470670868489, 42.672526349423485 ], [ -122.080329969208464, 42.6736342080792 ], [ -122.071334517745058, 42.660956947484337 ], [ -122.056764524023038, 42.651901007003481 ], [ -122.053795960199793, 42.646858198291795 ], [ -122.029239814669069, 42.63450474885326 ], [ -122.017798797491579, 42.621243907024414 ], [ -121.971946713556662, 42.581276165454163 ], [ -121.964853888966402, 42.585501902834984 ], [ -121.959978633784772, 42.586189876613446 ], [ -121.940513543622586, 42.58129753937542 ], [ -121.920271831340969, 42.581533140269769 ], [ -121.913187409340622, 42.584481066339457 ], [ -121.913531602336903, 42.589652344168336 ], [ -121.909506017431653, 42.588649989193648 ], [ -121.901482562684635, 42.59132496404078 ], [ -121.896221189497012, 42.581938753255649 ], [ -121.901820862116494, 42.577353800189613 ], [ -121.902172037885691, 42.575059317168268 ], [ -121.91034261810745, 42.572293749631683 ], [ -121.909366511184686, 42.56921108108051 ], [ -121.912418804552246, 42.566870443117843 ], [ -121.916271067163763, 42.557586275627408 ], [ -121.913197063546008, 42.553377916193391 ], [ -121.919019333091953, 42.546927191781577 ], [ -121.91747561722751, 42.545217939712224 ], [ -121.919215628456129, 42.54230459536349 ], [ -121.918070140819168, 42.537784218440144 ], [ -121.925362556996888, 42.525278060212415 ], [ -121.929171768282785, 42.522259775130408 ], [ -121.935417615276521, 42.521871909780742 ], [ -121.938374474777149, 42.519840501094848 ], [ -121.944042967364638, 42.520664964756669 ], [ -121.947465856606399, 42.515720910144971 ], [ -121.954000089871442, 42.514682708193646 ], [ -121.953128408277138, 42.512718834761721 ], [ -121.955645911890727, 42.507766249266091 ], [ -121.962951953003497, 42.506271324677478 ], [ -121.970754404420219, 42.508417709664002 ], [ -121.980524703145235, 42.503666764417012 ], [ -121.984291652592077, 42.500148694354209 ], [ -121.991624918544247, 42.502632640840808 ], [ -121.99534611481134, 42.509167896492556 ], [ -121.999343102346444, 42.510095053413103 ], [ -122.00040529664588, 42.503104211659313 ], [ -121.998531321458088, 42.501389282605125 ], [ -121.998891364534472, 42.496262430624839 ], [ -122.001354398361556, 42.491548538132825 ], [ -121.996057234664221, 42.487916375301332 ], [ -121.987997868428735, 42.485992483593385 ], [ -121.975395691689172, 42.479806803690508 ], [ -121.963436531292118, 42.468512693265339 ], [ -121.964612547669347, 42.464759787466669 ], [ -121.963609251405998, 42.463956247784331 ], [ -121.943789702434302, 42.464630181715556 ], [ -121.933921281880714, 42.462002395512663 ], [ -121.924456454894212, 42.467746391554336 ], [ -121.908940133845348, 42.467305603544503 ], [ -121.907095775933556, 42.469628356329849 ], [ -121.906617288855131, 42.474290634627508 ], [ -121.89546933626778, 42.479903006877308 ], [ -121.889510240048466, 42.475922300471844 ], [ -121.884826311605195, 42.476035787300169 ], [ -121.879691185018572, 42.479023872351675 ], [ -121.867930394589933, 42.477493445193346 ], [ -121.86272194864631, 42.473128418232307 ], [ -121.861204351627578, 42.459230432869447 ], [ -121.858560235700736, 42.453948097503151 ], [ -121.858685754929581, 42.449412230808719 ], [ -121.856451583684006, 42.443293677652157 ], [ -121.853905339153684, 42.443553138481249 ], [ -121.846953050212534, 42.449278782209412 ], [ -121.838686915997528, 42.448332604275166 ], [ -121.834868368960613, 42.446025279651451 ], [ -121.829157061581824, 42.44575937381849 ], [ -121.824639121783264, 42.44764610846596 ], [ -121.826033040016071, 42.44444295592541 ], [ -121.830605789780535, 42.442010747800992 ], [ -121.835799646083743, 42.436381135440655 ], [ -121.837712531790103, 42.428390618855069 ], [ -121.836356877534271, 42.424098646119049 ], [ -121.823429656360616, 42.409423077452971 ], [ -121.811573107440523, 42.399848804328883 ], [ -121.801138786143511, 42.377931080459376 ], [ -121.792648815671384, 42.371712524613898 ], [ -121.791966739356781, 42.368459464641973 ], [ -121.782132758887073, 42.357621823621507 ], [ -121.774254086420342, 42.341192803260967 ], [ -121.763584932778613, 42.328130988616955 ], [ -121.759385312378015, 42.320135123810601 ], [ -121.750390996802452, 42.311957124915587 ], [ -121.744928252838093, 42.2982245901296 ], [ -121.739504077541653, 42.292703852486603 ], [ -121.735087541312794, 42.284470528154266 ], [ -121.735760203599781, 42.281465034062961 ], [ -121.732622091541401, 42.268921955666457 ], [ -121.726984437756172, 42.262806601381108 ], [ -121.723011122904879, 42.255133444497588 ], [ -121.709055666777587, 42.24555944460274 ], [ -121.718057979197766, 42.24384675906596 ], [ -121.724357164984056, 42.247621808844684 ], [ -121.733981350763727, 42.257971311131996 ], [ -121.738762021900385, 42.259661787125495 ], [ -121.745282978758311, 42.260306690336677 ], [ -121.749161456244948, 42.258315555817788 ], [ -121.751622108438013, 42.258868135735277 ], [ -121.758034902090117, 42.262901408792331 ], [ -121.762976113018439, 42.272498263319541 ], [ -121.768942935563459, 42.268902873143247 ], [ -121.773764020782281, 42.269249735437235 ], [ -121.774839563191847, 42.267144333655729 ], [ -121.772601293482239, 42.265748886017867 ], [ -121.774843700369203, 42.261474729533191 ], [ -121.773403028590494, 42.260022192949577 ], [ -121.774825583336224, 42.258902800058287 ], [ -121.774139326585825, 42.253643138969061 ], [ -121.789741769917782, 42.251990661789208 ], [ -121.791502131651214, 42.246725908657893 ], [ -121.787504996124881, 42.239929528216692 ], [ -121.791686256493733, 42.235037942529104 ], [ -121.790188477940077, 42.230706102484419 ], [ -121.794733592582674, 42.22911060288947 ], [ -121.799551160676955, 42.234857986171903 ], [ -121.804293779337499, 42.232729476667274 ], [ -121.800017273990534, 42.222991152685452 ], [ -121.807842138531853, 42.218698404365909 ], [ -121.825565755215052, 42.227365789634241 ], [ -121.83497865454548, 42.22967676776365 ], [ -121.837255629397362, 42.225889640327487 ], [ -121.846950675323384, 42.221602555505335 ], [ -121.846852039370361, 42.218748216216106 ], [ -121.843691715862903, 42.216398683850628 ], [ -121.847284961865711, 42.21404905839313 ], [ -121.846930903708426, 42.211938031025142 ], [ -121.850090690795483, 42.212715314666525 ], [ -121.851456116226643, 42.208493369845726 ], [ -121.853406664999369, 42.208525004557806 ], [ -121.853282199630897, 42.202003499075268 ], [ -121.855045197883854, 42.199927757699307 ], [ -121.869709937890974, 42.194409502885442 ], [ -121.863522697947772, 42.188357073068339 ], [ -121.866195245399183, 42.183538832465977 ], [ -121.877087294102367, 42.174213816760073 ], [ -121.87683673272312, 42.172414107139836 ], [ -121.881452950705821, 42.172479343105422 ], [ -121.889976090829293, 42.168294932898021 ], [ -121.901229471799084, 42.173337340223803 ], [ -121.909292665807769, 42.170359555079663 ], [ -121.921777973800147, 42.169906691873557 ], [ -121.928553026227902, 42.176676502381191 ], [ -121.932806938339041, 42.172908000202504 ], [ -121.939461679549282, 42.171041623958025 ], [ -121.966894288625113, 42.204297609008762 ], [ -121.976591646343678, 42.210667281047748 ], [ -121.985591977812675, 42.213480867252734 ], [ -121.985670626424167, 42.217729403375863 ], [ -121.983653816707402, 42.22141416168428 ], [ -121.984865103142837, 42.226411344736078 ], [ -121.987548449685619, 42.228736013469494 ], [ -121.993405769771229, 42.229242796086133 ], [ -121.995812236444877, 42.232235651976332 ], [ -121.998537835184237, 42.231114908862963 ], [ -122.000658708057557, 42.228969923045675 ], [ -121.997426846006519, 42.225577539290107 ], [ -122.000724107878284, 42.224516393470203 ], [ -122.002513601562683, 42.219388238484157 ], [ -122.006777929858998, 42.216705564520502 ], [ -122.012011625108997, 42.219544309408569 ], [ -122.016448770831289, 42.21952852758259 ], [ -122.022686328435782, 42.227117294475207 ], [ -122.032395178045462, 42.232251096527328 ], [ -122.038380272481191, 42.23860322569282 ], [ -122.047661682520626, 42.240594613800866 ], [ -122.051741163368604, 42.24510716386618 ], [ -122.052057763350589, 42.250686263364784 ], [ -122.058306153883876, 42.259640247420101 ], [ -122.065611073962543, 42.274555490165611 ], [ -122.068300814764157, 42.285317068531697 ], [ -122.067413785441829, 42.288047686104257 ], [ -122.07334978196323, 42.294780767414942 ], [ -122.073755816916716, 42.300369787684396 ], [ -122.080542662256974, 42.313381797388367 ], [ -122.085260736331946, 42.313443431655159 ], [ -122.091954163716082, 42.317040238973583 ], [ -122.095819974747087, 42.324988167275734 ], [ -122.105355147413746, 42.335291934207447 ], [ -122.114148283701411, 42.335123887758961 ], [ -122.123334561871232, 42.3389735447414 ], [ -122.131510398331471, 42.339276940555187 ], [ -122.133514651877618, 42.342998003781787 ], [ -122.133354448731296, 42.345982761203892 ], [ -122.12888794055003, 42.349070103139411 ], [ -122.117467542319602, 42.35261350039648 ], [ -122.113065741521837, 42.356974094566482 ], [ -122.106300918188765, 42.359416132087233 ], [ -122.093073785916417, 42.373146398121335 ], [ -122.102378242791588, 42.389828116872444 ], [ -122.099637569493481, 42.401305383361219 ], [ -122.102590581198783, 42.404892779921596 ], [ -122.105973145265054, 42.419684281551326 ], [ -122.102670078028254, 42.42178451225633 ], [ -122.10248349934038, 42.428259066497233 ], [ -122.107074724762043, 42.437679005603464 ], [ -122.10727505093729, 42.441274062798243 ], [ -122.114183584740232, 42.450506923037835 ], [ -122.105144585215029, 42.457696724542927 ], [ -122.098636312677925, 42.465599006383222 ], [ -122.099092056250058, 42.467300405256687 ], [ -122.10344923646835, 42.465615306429925 ], [ -122.106971276086341, 42.468734142452774 ], [ -122.108626828716211, 42.488969413663803 ], [ -122.124978309165456, 42.502862706252003 ], [ -122.131739679050781, 42.516040146792839 ], [ -122.136346843628431, 42.516396102456788 ], [ -122.141090387980952, 42.511402587251311 ], [ -122.147103751219944, 42.51432388752302 ], [ -122.149048991791048, 42.518814873528264 ], [ -122.147225735900307, 42.522009081412385 ], [ -122.152765235078817, 42.53356463098384 ], [ -122.159729561658153, 42.540414473555813 ], [ -122.169509842643862, 42.542544519451674 ], [ -122.174878324532799, 42.545408063907786 ], [ -122.175339104843118, 42.553841807319813 ], [ -122.189445252195981, 42.550515226718382 ], [ -122.192847530767779, 42.555326950190043 ], [ -122.198454019268951, 42.55747290796328 ], [ -122.200405824947921, 42.55676839841032 ], [ -122.202189627917207, 42.552171911805843 ], [ -122.212400278422678, 42.551538913785258 ], [ -122.212556002261309, 42.557073990919015 ], [ -122.220021089864034, 42.57268619346064 ], [ -122.229244326349686, 42.577666649128709 ], [ -122.224458002980668, 42.589255972875527 ], [ -122.216116495998079, 42.596300103068593 ], [ -122.214821788612724, 42.600115681332205 ], [ -122.216639184652678, 42.603159508215953 ], [ -122.217747090266542, 42.611981045180563 ], [ -122.214336369862991, 42.621800057548953 ], [ -122.214769789486965, 42.625820323717832 ], [ -122.217392785001422, 42.629698310103386 ], [ -122.222371848863759, 42.63253432614146 ], [ -122.224755987307375, 42.636996670990513 ], [ -122.214243342980041, 42.643043857795213 ], [ -122.206077054870079, 42.641376754969251 ], [ -122.198811661292396, 42.648927091014443 ], [ -122.178014463946539, 42.65462687765659 ], [ -122.168409523962779, 42.654498907006598 ], [ -122.168994599639106, 42.657105083697935 ], [ -122.166147560507511, 42.661437612595776 ], [ -122.159034073904394, 42.664112935270261 ], [ -122.146640440099333, 42.664617025224366 ], [ -122.143396925668569, 42.668497485012999 ], [ -122.138783529288091, 42.66588954474021 ], [ -122.123426293806816, 42.664944350110261 ], [ -122.119672479548854, 42.669942521137656 ], [ -122.110815112882904, 42.671829009389469 ], [ -122.103613283485075, 42.676110934832622 ], [ -122.09750972187048, 42.674182531108627 ] ] ] } }
]
}
